<?xml version="1.0" encoding="UTF-8"?>
<ndm xmlns:xsi="http://www.w3.org/2001/XMLSchema-instance" xsi:noNamespaceSchemaLocation="https://sanaregistry.org/r/ndmxml_unqualified/ndmxml-2.0.0-master-2.0.xsd">
<omm id="CCSDS_OMM_VERS" version="2.0">
<header><CREATION_DATE/><ORIGINATOR/></header><body><segment><metadata><OBJECT_NAME>IRIDIUM 26</OBJECT_NAME><OBJECT_ID>1997-043A</OBJECT_ID><CENTER_NAME>EARTH</CENTER_NAME><REF_FRAME>TEME</REF_FRAME><TIME_SYSTEM>UTC</TIME_SYSTEM><MEAN_ELEMENT_THEORY>SGP4</MEAN_ELEMENT_THEORY></metadata><data><meanElements><EPOCH>2025-08-30T19:47:18.586752</EPOCH><MEAN_MOTION>14.37192354</MEAN_MOTION><ECCENTRICITY>.00020575</ECCENTRICITY><INCLINATION>86.3899</INCLINATION><RA_OF_ASC_NODE>79.2478</RA_OF_ASC_NODE><ARG_OF_PERICENTER>94.0929</ARG_OF_PERICENTER><MEAN_ANOMALY>266.0504</MEAN_ANOMALY></meanElements><tleParameters><EPHEMERIS_TYPE>0</EPHEMERIS_TYPE><CLASSIFICATION_TYPE>U</CLASSIFICATION_TYPE><NORAD_CAT_ID>24903</NORAD_CAT_ID><ELEMENT_SET_NO>999</ELEMENT_SET_NO><REV_AT_EPOCH>46746</REV_AT_EPOCH><BSTAR>.16494905E-3</BSTAR><MEAN_MOTION_DOT>.51E-5</MEAN_MOTION_DOT><MEAN_MOTION_DDOT>0</MEAN_MOTION_DDOT></tleParameters></data></segment></body></omm>
<omm id="CCSDS_OMM_VERS" version="2.0">
<header><CREATION_DATE/><ORIGINATOR/></header><body><segment><metadata><OBJECT_NAME>IRIDIUM 22</OBJECT_NAME><OBJECT_ID>1997-043E</OBJECT_ID><CENTER_NAME>EARTH</CENTER_NAME><REF_FRAME>TEME</REF_FRAME><TIME_SYSTEM>UTC</TIME_SYSTEM><MEAN_ELEMENT_THEORY>SGP4</MEAN_ELEMENT_THEORY></metadata><data><meanElements><EPOCH>2025-08-30T19:35:15.556992</EPOCH><MEAN_MOTION>14.36000097</MEAN_MOTION><ECCENTRICITY>.00021875</ECCENTRICITY><INCLINATION>86.3903</INCLINATION><RA_OF_ASC_NODE>82.8581</RA_OF_ASC_NODE><ARG_OF_PERICENTER>90.1972</ARG_OF_PERICENTER><MEAN_ANOMALY>269.9475</MEAN_ANOMALY></meanElements><tleParameters><EPHEMERIS_TYPE>0</EPHEMERIS_TYPE><CLASSIFICATION_TYPE>U</CLASSIFICATION_TYPE><NORAD_CAT_ID>24907</NORAD_CAT_ID><ELEMENT_SET_NO>999</ELEMENT_SET_NO><REV_AT_EPOCH>46748</REV_AT_EPOCH><BSTAR>.15079454E-3</BSTAR><MEAN_MOTION_DOT>.457E-5</MEAN_MOTION_DOT><MEAN_MOTION_DDOT>0</MEAN_MOTION_DDOT></tleParameters></data></segment></body></omm>
<omm id="CCSDS_OMM_VERS" version="2.0">
<header><CREATION_DATE/><ORIGINATOR/></header><body><segment><metadata><OBJECT_NAME>DUMMY MASS 1</OBJECT_NAME><OBJECT_ID>1997-048A</OBJECT_ID><CENTER_NAME>EARTH</CENTER_NAME><REF_FRAME>TEME</REF_FRAME><TIME_SYSTEM>UTC</TIME_SYSTEM><MEAN_ELEMENT_THEORY>SGP4</MEAN_ELEMENT_THEORY></metadata><data><meanElements><EPOCH>2025-08-30T17:01:22.406304</EPOCH><MEAN_MOTION>14.87038244</MEAN_MOTION><ECCENTRICITY>.00046294</ECCENTRICITY><INCLINATION>86.3308</INCLINATION><RA_OF_ASC_NODE>100.8684</RA_OF_ASC_NODE><ARG_OF_PERICENTER>229.0093</ARG_OF_PERICENTER><MEAN_ANOMALY>131.0732</MEAN_ANOMALY></meanElements><tleParameters><EPHEMERIS_TYPE>0</EPHEMERIS_TYPE><CLASSIFICATION_TYPE>U</CLASSIFICATION_TYPE><NORAD_CAT_ID>24925</NORAD_CAT_ID><ELEMENT_SET_NO>999</ELEMENT_SET_NO><REV_AT_EPOCH>51620</REV_AT_EPOCH><BSTAR>.57568786E-4</BSTAR><MEAN_MOTION_DOT>.544E-5</MEAN_MOTION_DOT><MEAN_MOTION_DDOT>0</MEAN_MOTION_DDOT></tleParameters></data></segment></body></omm>
<omm id="CCSDS_OMM_VERS" version="2.0">
<header><CREATION_DATE/><ORIGINATOR/></header><body><segment><metadata><OBJECT_NAME>DUMMY MASS 2</OBJECT_NAME><OBJECT_ID>1997-048B</OBJECT_ID><CENTER_NAME>EARTH</CENTER_NAME><REF_FRAME>TEME</REF_FRAME><TIME_SYSTEM>UTC</TIME_SYSTEM><MEAN_ELEMENT_THEORY>SGP4</MEAN_ELEMENT_THEORY></metadata><data><meanElements><EPOCH>2025-08-30T21:15:29.949120</EPOCH><MEAN_MOTION>14.86790287</MEAN_MOTION><ECCENTRICITY>.00051606</ECCENTRICITY><INCLINATION>86.3311</INCLINATION><RA_OF_ASC_NODE>102.4091</RA_OF_ASC_NODE><ARG_OF_PERICENTER>246.6315</ARG_OF_PERICENTER><MEAN_ANOMALY>113.4367</MEAN_ANOMALY></meanElements><tleParameters><EPHEMERIS_TYPE>0</EPHEMERIS_TYPE><CLASSIFICATION_TYPE>U</CLASSIFICATION_TYPE><NORAD_CAT_ID>24926</NORAD_CAT_ID><ELEMENT_SET_NO>999</ELEMENT_SET_NO><REV_AT_EPOCH>51600</REV_AT_EPOCH><BSTAR>.57975812E-4</BSTAR><MEAN_MOTION_DOT>.544E-5</MEAN_MOTION_DOT><MEAN_MOTION_DDOT>0</MEAN_MOTION_DDOT></tleParameters></data></segment></body></omm>
<omm id="CCSDS_OMM_VERS" version="2.0">
<header><CREATION_DATE/><ORIGINATOR/></header><body><segment><metadata><OBJECT_NAME>IRIDIUM 29</OBJECT_NAME><OBJECT_ID>1997-051A</OBJECT_ID><CENTER_NAME>EARTH</CENTER_NAME><REF_FRAME>TEME</REF_FRAME><TIME_SYSTEM>UTC</TIME_SYSTEM><MEAN_ELEMENT_THEORY>SGP4</MEAN_ELEMENT_THEORY></metadata><data><meanElements><EPOCH>2025-08-30T21:10:07.004928</EPOCH><MEAN_MOTION>14.36519734</MEAN_MOTION><ECCENTRICITY>.00022621</ECCENTRICITY><INCLINATION>86.3937</INCLINATION><RA_OF_ASC_NODE>112.5726</RA_OF_ASC_NODE><ARG_OF_PERICENTER>81.9505</ARG_OF_PERICENTER><MEAN_ANOMALY>278.1949</MEAN_ANOMALY></meanElements><tleParameters><EPHEMERIS_TYPE>0</EPHEMERIS_TYPE><CLASSIFICATION_TYPE>U</CLASSIFICATION_TYPE><NORAD_CAT_ID>24944</NORAD_CAT_ID><ELEMENT_SET_NO>999</ELEMENT_SET_NO><REV_AT_EPOCH>46399</REV_AT_EPOCH><BSTAR>.17449051E-3</BSTAR><MEAN_MOTION_DOT>.532E-5</MEAN_MOTION_DOT><MEAN_MOTION_DDOT>0</MEAN_MOTION_DDOT></tleParameters></data></segment></body></omm>
<omm id="CCSDS_OMM_VERS" version="2.0">
<header><CREATION_DATE/><ORIGINATOR/></header><body><segment><metadata><OBJECT_NAME>IRIDIUM 33</OBJECT_NAME><OBJECT_ID>1997-051C</OBJECT_ID><CENTER_NAME>EARTH</CENTER_NAME><REF_FRAME>TEME</REF_FRAME><TIME_SYSTEM>UTC</TIME_SYSTEM><MEAN_ELEMENT_THEORY>SGP4</MEAN_ELEMENT_THEORY></metadata><data><meanElements><EPOCH>2025-08-30T21:01:54.392736</EPOCH><MEAN_MOTION>14.34930660</MEAN_MOTION><ECCENTRICITY>.00074739</ECCENTRICITY><INCLINATION>86.3850</INCLINATION><RA_OF_ASC_NODE>111.8413</RA_OF_ASC_NODE><ARG_OF_PERICENTER>179.2049</ARG_OF_PERICENTER><MEAN_ANOMALY>180.9160</MEAN_ANOMALY></meanElements><tleParameters><EPHEMERIS_TYPE>0</EPHEMERIS_TYPE><CLASSIFICATION_TYPE>U</CLASSIFICATION_TYPE><NORAD_CAT_ID>24946</NORAD_CAT_ID><ELEMENT_SET_NO>999</ELEMENT_SET_NO><REV_AT_EPOCH>46345</REV_AT_EPOCH><BSTAR>.10340661E-3</BSTAR><MEAN_MOTION_DOT>.314E-5</MEAN_MOTION_DOT><MEAN_MOTION_DDOT>0</MEAN_MOTION_DDOT></tleParameters></data></segment></body></omm>
<omm id="CCSDS_OMM_VERS" version="2.0">
<header><CREATION_DATE/><ORIGINATOR/></header><body><segment><metadata><OBJECT_NAME>IRIDIUM 28</OBJECT_NAME><OBJECT_ID>1997-051E</OBJECT_ID><CENTER_NAME>EARTH</CENTER_NAME><REF_FRAME>TEME</REF_FRAME><TIME_SYSTEM>UTC</TIME_SYSTEM><MEAN_ELEMENT_THEORY>SGP4</MEAN_ELEMENT_THEORY></metadata><data><meanElements><EPOCH>2025-08-30T21:04:14.023776</EPOCH><MEAN_MOTION>14.37429374</MEAN_MOTION><ECCENTRICITY>.00019767</ECCENTRICITY><INCLINATION>86.3938</INCLINATION><RA_OF_ASC_NODE>110.0460</RA_OF_ASC_NODE><ARG_OF_PERICENTER>100.5380</ARG_OF_PERICENTER><MEAN_ANOMALY>259.6041</MEAN_ANOMALY></meanElements><tleParameters><EPHEMERIS_TYPE>0</EPHEMERIS_TYPE><CLASSIFICATION_TYPE>U</CLASSIFICATION_TYPE><NORAD_CAT_ID>24948</NORAD_CAT_ID><ELEMENT_SET_NO>999</ELEMENT_SET_NO><REV_AT_EPOCH>46457</REV_AT_EPOCH><BSTAR>.14134942E-3</BSTAR><MEAN_MOTION_DOT>.442E-5</MEAN_MOTION_DOT><MEAN_MOTION_DDOT>0</MEAN_MOTION_DDOT></tleParameters></data></segment></body></omm>
<omm id="CCSDS_OMM_VERS" version="2.0">
<header><CREATION_DATE/><ORIGINATOR/></header><body><segment><metadata><OBJECT_NAME>IRIDIUM 36</OBJECT_NAME><OBJECT_ID>1997-056C</OBJECT_ID><CENTER_NAME>EARTH</CENTER_NAME><REF_FRAME>TEME</REF_FRAME><TIME_SYSTEM>UTC</TIME_SYSTEM><MEAN_ELEMENT_THEORY>SGP4</MEAN_ELEMENT_THEORY></metadata><data><meanElements><EPOCH>2025-08-30T18:14:20.047200</EPOCH><MEAN_MOTION>14.37657163</MEAN_MOTION><ECCENTRICITY>.00023018</ECCENTRICITY><INCLINATION>86.4009</INCLINATION><RA_OF_ASC_NODE>141.7019</RA_OF_ASC_NODE><ARG_OF_PERICENTER>90.5644</ARG_OF_PERICENTER><MEAN_ANOMALY>269.5817</MEAN_ANOMALY></meanElements><tleParameters><EPHEMERIS_TYPE>0</EPHEMERIS_TYPE><CLASSIFICATION_TYPE>U</CLASSIFICATION_TYPE><NORAD_CAT_ID>24967</NORAD_CAT_ID><ELEMENT_SET_NO>999</ELEMENT_SET_NO><REV_AT_EPOCH>46293</REV_AT_EPOCH><BSTAR>.14334947E-3</BSTAR><MEAN_MOTION_DOT>.45E-5</MEAN_MOTION_DOT><MEAN_MOTION_DDOT>0</MEAN_MOTION_DDOT></tleParameters></data></segment></body></omm>

</ndm>
