IRIDIUM 26              
1 24903U 97043A   25242.82452068  .00000510  00000+0  16495-3 0  9994
2 24903  86.3899  79.2478 0002057  94.0929 266.0504 14.37192354467466
IRIDIUM 22              
1 24907U 97043E   25242.81615228  .00000457  00000+0  15079-3 0  9993
2 24907  86.3903  82.8581 0002187  90.1972 269.9475 14.36000097467482
DUMMY MASS 1            
1 24925U 97048A   25242.70928711  .00000544  00000+0  57569-4 0  9998
2 24925  86.3308 100.8684 0004629 229.0093 131.0732 14.87038244516207
DUMMY MASS 2            
1 24926U 97048B   25242.88576330  .00000544  00000+0  57976-4 0  9996
2 24926  86.3311 102.4091 0005160 246.6315 113.4367 14.86790287516002
IRIDIUM 29              
1 24944U 97051A   25242.88202552  .00000532  00000+0  17449-3 0  9999
2 24944  86.3937 112.5726 0002262  81.9505 278.1949 14.36519734463999
IRIDIUM 33              
1 24946U 97051C   25242.87632399  .00000314  00000+0  10341-3 0  9998
2 24946  86.3850 111.8413 0007473 179.2049 180.9160 14.34930660463452
IRIDIUM 28              
1 24948U 97051E   25242.87794009  .00000442  00000+0  14135-3 0  9994
2 24948  86.3938 110.0460 0001976 100.5380 259.6041 14.37429374464575
IRIDIUM 36              
1 24967U 97056C   25242.75995425  .00000450  00000+0  14335-3 0  9993
2 24967  86.4009 141.7019 0002301  90.5644 269.5817 14.37657163462939
